GLOBALSTAR M001         
1 25162U 98008A   25312.21452066 -.00000044  00000+0  39994-3 0  9995
2 25162  52.0034 274.0171 0000991 184.4900 281.1398 12.38220281261559
GLOBALSTAR M004         
1 25163U 98008B   25312.36548985 -.00000084  00000+0  11301-3 0  9994
2 25163  52.0019 334.2955 0002904 248.6675 124.3332 12.63407259279915
GLOBALSTAR M002         
1 25164U 98008C   25311.96697228 -.00000045  00000+0  61066-3 0  9995
2 25164  52.0008 239.6995 0002207  48.9611 311.1399 11.61513029200770
GLOBALSTAR M003         
1 25165U 98008D   25312.51061579 -.00000213  00000+0 -13136-2 0  9994
2 25165  51.9895 128.7942 0007347 217.8255 173.9806 12.12049905250725
GLOBALSTAR M014         
1 25306U 98023A   25311.85257870 -.00000057  00000+0  39247-3 0  9992
2 25306  51.9805 160.1895 0000179  75.5856 298.0056 11.65483498207928
GLOBALSTAR M006         
1 25307U 98023B   25312.45771323 -.00000050  00000+0  53315-3 0  9999
2 25307  51.9924 216.5245 0003802  20.0719 151.1562 11.58177987233548
GLOBALSTAR M015         
1 25308U 98023C   25312.50485502 -.00000058  00000+0  34574-3 0  9991
2 25308  51.9837 321.4946 0012474 333.1456 196.1827 11.48859349210666
GLOBALSTAR M008         
1 25309U 98023D   25312.48416904 -.00000095  00000+0  10359-4 0  9996
2 25309  51.9935 139.6973 0003654 111.5241 266.7287 12.36075603255692
